NORAD_CAT_ID,OBJECT_NAME,OBJECT_TYPE,EPOCH,MEAN_MOTION,ECCENTRICITY,INCLINATION,RA_OF_ASC_NODE,ARG_OF_PERICENTER,MEAN_ANOMALY,BSTAR,MEAN_MOTION_DOT,MEAN_MOTION_DDOT,TLE_LINE0,TLE_LINE1,TLE_LINE2,SEMIMAJOR_AXIS,PERIOD,APOGEE,PERIGEE,DECAYED
53018.0,STARLINK-4279,PAYLOAD,2023-09-17 01:53:56,15.08840021,0.0001494,53.2174,185.3341,104.6195,255.4963,8.4948e-05,1.064e-05,0.0,0 STARLINK-4279,1 53018U 22076AJ  23260.07912090  .00001064  00000-0  84948-4 0  9993,2 53018  53.2174 185.3341 0001494 104.6195 255.4963 15.08840021 66881,6917.88,95.438,540.779,538.712,0.0
53018.0,STARLINK-4279,PAYLOAD,2023-09-17 05:04:42,15.08842837,0.0001462,53.2172,184.7396,102.5535,257.5621,0.00013198,1.813e-05,0.0,0 STARLINK-4279,1 53018U 22076AJ  23260.21160028  .00001813  00000-0  13198-3 0  9995,2 53018  53.2172 184.7396 0001462 102.5535 257.5621 15.08842837 66434,6917.872,95.437,540.748,538.725,0.0
53018.0,STARLINK-4279,PAYLOAD,2023-09-18 01:44:42,15.08856359,0.0001304,53.2164,180.8764,92.0862,268.028,0.0003652,5.532e-05,0.0,0 STARLINK-4279,1 53018U 22076AJ  23261.07271458  .00005532  00000-0  36520-3 0  9996,2 53018  53.2164 180.8764 0001304  92.0862 268.0280 15.08856359 67031,6917.83,95.437,540.597,538.793,0.0
53018.0,STARLINK-4279,PAYLOAD,2023-09-18 19:13:57,15.08844323,0.0001297,53.2167,177.6037,89.2841,270.83,0.0001952,2.82e-05,0.0,0 STARLINK-4279,1 53018U 22076AJ  23261.80135903  .00002820  00000-0  19520-3 0  9999,2 53018  53.2167 177.6037 0001297  89.2841 270.8300 15.08844323 66678,6917.867,95.437,540.629,538.835,0.0
53018.0,STARLINK-4279,PAYLOAD,2023-09-19 01:35:29,15.08854164,0.0001254,53.2162,176.4156,90.0301,270.0835,0.00040042,6.093e-05,0.0,0 STARLINK-4279,1 53018U 22076AJ  23262.06631553  .00006093  00000-0  40042-3 0  9999,2 53018  53.2162 176.4156 0001254  90.0301 270.0835 15.08854164 67182,6917.837,95.437,540.57,538.835,0.0
53018.0,STARLINK-4279,PAYLOAD,2023-09-20 03:01:39,15.0886007,0.0001465,53.2164,171.6572,78.3658,281.7498,0.00068727,0.00010673,0.0,0 STARLINK-4279,1 53018U 22076AJ  23263.12614899  .00010673  00000-0  68727-3 0  9990,2 53018  53.2164 171.6572 0001465  78.3658 281.7498 15.08860070 67346,6917.819,95.436,540.698,538.671,0.0
53018.0,STARLINK-4279,PAYLOAD,2023-09-20 10:58:35,15.08837053,0.0001509,53.2161,170.1714,80.4166,279.6996,4.9168e-05,4.95e-06,0.0,0 STARLINK-4279,1 53018U 22076AJ  23263.45735425  .00000495  00000-0  49168-4 0  9995,2 53018  53.2161 170.1714 0001509  80.4166 279.6996 15.08837053 67391,6917.889,95.438,540.798,538.71,0.0
53018.0,STARLINK-4279,PAYLOAD,2023-09-20 22:06:18,15.08811796,0.0001645,53.2155,168.0897,84.0894,276.0286,-0.0004743,-7.823e-05,0.0,0 STARLINK-4279,1 53018U 22076AJ  23263.92104647 -.00007823  00000-0 -47430-3 0  9996,2 53018  53.2155 168.0897 0001645  84.0894 276.0286 15.08811796 66995,6917.967,95.439,540.97,538.694,0.0
53018.0,STARLINK-4279,PAYLOAD,2023-09-21 01:17:04,15.08813633,0.0001505,53.2154,167.4951,82.6132,277.5031,-0.00023148,-3.967e-05,0.0,0 STARLINK-4279,1 53018U 22076AJ  23264.05352871 -.00003967  00000-0 -23148-3 0  9990,2 53018  53.2154 167.4951 0001505  82.6132 277.5031 15.08813633 67483,6917.961,95.439,540.867,538.785,0.0
53018.0,STARLINK-4279,PAYLOAD,2023-09-21 04:27:51,15.08811706,0.0001562,53.2152,166.9002,85.9507,274.1664,0.00048005,7.354e-05,0.0,0 STARLINK-4279,1 53018U 22076AJ  23264.18601306  .00007354  00000-0  48005-3 0  9995,2 53018  53.2152 166.9002 0001562  85.9507 274.1664 15.08811706 67032,6917.967,95.439,540.912,538.751,0.0
53018.0,STARLINK-4279,PAYLOAD,2023-09-21 21:57:06,15.08847186,0.0001596,53.2152,163.6292,82.1105,278.0069,0.0013424,0.00021145,0.0,0 STARLINK-4279,1 53018U 22076AJ  23264.91465628  .00021145  00000-0  13424-2 0  9991,2 53018  53.2152 163.6292 0001596  82.1105 278.0069 15.08847186 67142,6917.858,95.437,540.828,538.619,0.0
53018.0,STARLINK-4279,PAYLOAD,2023-09-22 02:43:15,15.08865214,0.0001506,53.2152,162.7373,84.3935,275.7229,0.0017244,0.00027281,0.0,0 STARLINK-4279,1 53018U 22076AJ  23265.11337274  .00027281  00000-0  17244-2 0  9990,2 53018  53.2152 162.7373 0001506  84.3935 275.7229 15.08865214 67647,6917.803,95.436,540.71,538.626,0.0
53018.0,STARLINK-4279,PAYLOAD,2023-09-22 17:01:43,15.08863996,0.0001574,53.2155,160.061,89.2581,270.8592,0.0015884,0.00025098,0.0,0 STARLINK-4279,1 53018U 22076AJ  23265.70953187  .00025098  00000-0  15884-2 0  9994,2 53018  53.2155 160.0610 0001574  89.2581 270.8592 15.08863996 67735,6917.807,95.436,540.761,538.583,0.0
53018.0,STARLINK-4279,PAYLOAD,2023-09-22 21:47:52,15.08867093,0.0001963,53.2157,159.1678,98.5123,261.6092,0.0016313,0.00025789,0.0,0 STARLINK-4279,1 53018U 22076AJ  23265.90824932  .00025789  00000-0  16313-2 0  9996,2 53018  53.2157 159.1678 0001963  98.5123 261.6092 15.08867093 67293,6917.798,95.436,541.021,538.305,0.0
53018.0,STARLINK-4279,PAYLOAD,2023-09-22 23:23:15,15.08867394,0.0001556,53.2154,158.872,74.9303,285.1862,0.0015393,0.00024313,0.0,0 STARLINK-4279,1 53018U 22076AJ  23265.97448939  .00024313  00000-0  15393-2 0  9991,2 53018  53.2154 158.8720 0001556  74.9303 285.1862 15.08867394 67773,6917.797,95.436,540.738,538.585,0.0
53018.0,STARLINK-4279,PAYLOAD,2023-09-23 16:52:30,15.08861489,0.0001759,53.2156,155.6004,80.241,279.8781,0.0015104,0.00023846,0.0,0 STARLINK-4279,1 53018U 22076AJ  23266.70312848  .00023846  00000-0  15104-2 0  9992,2 53018  53.2156 155.6004 0001759  80.2410 279.8781 15.08861489 67880,6917.815,95.436,540.897,538.463,0.0
53018.0,STARLINK-4279,PAYLOAD,2023-09-23 23:14:02,15.08848862,0.0001317,53.2158,154.4107,84.1374,275.9768,0.00054086,8.332e-05,0.0,0 STARLINK-4279,1 53018U 22076AJ  23266.96808632  .00008332  00000-0  54086-3 0  9997,2 53018  53.2158 154.4107 0001317  84.1374 275.9768 15.08848862 67922,6917.853,95.437,540.629,538.807,0.0
53018.0,STARLINK-4279,PAYLOAD,2023-09-24 21:29:26,15.08838546,0.0001427,53.2156,150.2473,90.4723,269.6433,1.4907e-05,-5.1e-07,0.0,0 STARLINK-4279,1 53018U 22076AJ  23267.89544965 -.00000051  00000-0  14907-4 0  9996,2 53018  53.2156 150.2473 0001427  90.4723 269.6433 15.08838546 68063,6917.885,95.438,540.737,538.763,0.0
53018.0,STARLINK-4279,PAYLOAD,2023-09-25 02:15:36,15.0884542,0.0001419,53.2159,149.3546,90.0669,270.0485,3.3721e-05,2.49e-06,0.0,0 STARLINK-4279,1 53018U 22076AJ  23268.09416699  .00000249  00000-0  33721-4 0  9994,2 53018  53.2159 149.3546 0001419  90.0669 270.0485 15.08845420 67625,6917.864,95.437,540.71,538.747,0.0
53018.0,STARLINK-4279,PAYLOAD,2023-09-25 19:44:50,15.08848283,0.0001341,53.216,146.0836,92.7716,267.343,0.00017732,2.536e-05,0.0,0 STARLINK-4279,1 53018U 22076AJ  23268.82280382  .00002536  00000-0  17732-3 0  9997,2 53018  53.2160 146.0836 0001341  92.7716 267.3430 15.08848283 68203,6917.855,95.437,540.648,538.792,0.0
53018.0,STARLINK-4279,PAYLOAD,2023-09-25 21:20:13,15.08852308,0.0001311,53.216,145.7863,89.0414,271.0728,0.00022181,3.245e-05,0.0,0 STARLINK-4279,1 53018U 22076AJ  23268.88904199  .00003245  00000-0  22181-3 0  9994,2 53018  53.2160 145.7863 0001311  89.0414 271.0728 15.08852308 67743,6917.843,95.437,540.615,538.801,0.0
53018.0,STARLINK-4279,PAYLOAD,2023-09-26 02:06:22,15.08862058,0.0001353,53.2164,144.8933,92.2656,267.8491,0.00046095,7.06e-05,0.0,0 STARLINK-4279,1 53018U 22076AJ  23269.08775833  .00007060  00000-0  46095-3 0  9997,2 53018  53.2164 144.8933 0001353  92.2656 267.8491 15.08862058 68244,6917.813,95.436,540.614,538.742,0.0
53018.0,STARLINK-4279,PAYLOAD,2023-09-26 19:35:38,15.08837278,0.0002001,53.2163,141.6162,129.73,230.3869,-9.7691e-05,-1.843e-05,0.0,0 STARLINK-4279,1 53018U 22076AJ  23269.81641233 -.00001843  00000-0 -97691-4 0  9998,2 53018  53.2163 141.6162 0002001 129.7300 230.3869 15.08837278 68357,6917.889,95.438,541.138,538.369,0.0
53018.0,STARLINK-4279,PAYLOAD,2023-09-26 21:11:01,15.08829924,0.0001608,53.2163,141.3257,89.0876,271.03,-0.00017102,-3.008e-05,0.0,0 STARLINK-4279,1 53018U 22076AJ  23269.88265263 -.00003008  00000-0 -17102-3 0  9993,2 53018  53.2163 141.3257 0001608  89.0876 271.0300 15.08829924 67896,6917.911,95.438,540.889,538.664,0.0
53018.0,STARLINK-4279,PAYLOAD,2023-09-27 08:18:43,15.0882604,0.0001656,53.2165,139.2439,88.1904,271.9278,-0.0001063,-1.979e-05,0.0,0 STARLINK-4279,1 53018U 22076AJ  23270.34633818 -.00001979  00000-0 -10630-3 0  9995,2 53018  53.2165 139.2439 0001656  88.1904 271.9278 15.08826040 68431,6917.923,95.438,540.934,538.642,0.0
53018.0,STARLINK-4279,PAYLOAD,2023-09-27 22:37:12,15.08831437,0.0001672,53.216,136.5683,87.5221,272.5962,0.00017931,2.566e-05,0.0,0 STARLINK-4279,1 53018U 22076AJ  23270.94250294  .00002566  00000-0  17931-3 0  9996,2 53018  53.2160 136.5683 0001672  87.5221 272.5962 15.08831437 68523,6917.907,95.438,540.928,538.615,0.0
53018.0,STARLINK-4279,PAYLOAD,2023-09-28 20:52:35,15.08850841,0.0001644,53.2155,132.4057,89.6823,270.4357,0.00055051,8.487e-05,0.0,0 STARLINK-4279,1 53018U 22076AJ  23271.86986062  .00008487  00000-0  55051-3 0  9990,2 53018  53.2155 132.4057 0001644  89.6823 270.4357 15.08850841 68195,6917.847,95.437,540.85,538.575,0.0
53018.0,STARLINK-4279,PAYLOAD,2023-09-29 00:03:22,15.08858083,0.0001668,53.2154,131.8105,89.1728,270.9455,0.00069397,0.00010779,0.0,0 STARLINK-4279,1 53018U 22076AJ  23272.00233870  .00010779  00000-0  69397-3 0  9994,2 53018  53.2154 131.8105 0001668  89.1728 270.9455 15.08858083 68680,6917.825,95.436,540.844,538.536,0.0
53018.0,STARLINK-4279,PAYLOAD,2023-09-29 19:07:58,15.08860708,0.0001549,53.215,128.2396,116.356,243.7591,0.00044075,6.737e-05,0.0,0 STARLINK-4279,1 53018U 22076AJ  23272.79721020  .00006737  00000-0  44075-3 0  9994,2 53018  53.2150 128.2396 0001549 116.3560 243.7591 15.08860708 68803,6917.817,95.436,540.754,538.611,0.0
53018.0,STARLINK-4279,PAYLOAD,2023-09-29 20:43:21,15.0886002,0.0001677,53.2153,127.9415,126.6423,233.4723,0.00048468,7.438e-05,0.0,0 STARLINK-4279,1 53018U 22076AJ  23272.86344895  .00007438  00000-0  48468-3 0  9992,2 53018  53.2153 127.9415 0001677 126.6423 233.4723 15.08860020 68347,6917.819,95.436,540.844,538.524,0.0
